     2.100          NAVIGATION                              RINEX VERSION / TYPE
fic2rin                                 07/14/2011 01:22:24 PGM / RUN BY / DATE
                                                            END OF HEADER
 2 11  7 13  2  0  0.0  .346309971064D-03  .181898940355D-11  .000000000000D+00
     .890000000000D+02 -.434375000000D+01  .549772900248D-08 -.289167033292D+01
    -.299885869026D-06  .103450976312D-01  .516325235367D-05  .515377056694D+04
     .266400000000D+06 -.188127160072D-06 -.176254296122D+01 -.856816768646D-07
     .938476236171D+00  .267312500000D+03 -.296455033397D+01 -.824784355579D-08
    -.186079179516D-09  .100000000000D+01  .164400000000D+04  .000000000000D+00
     .240000000000D+01  .000000000000D+00 -.172294676304D-07  .890000000000D+02
     .259206000000D+06  .400000000000D+01
 3 11  7 13  2  0  0.0  .741021707654D-03  .488853402203D-11  .000000000000D+00
     .510000000000D+02 -.131875000000D+02  .517057251796D-08 -.273451896664D+01
    -.949949026108D-06  .144531383412D-01  .100769102573D-04  .515366420555D+04
     .266400000000D+06  .191852450371D-06 -.292121887601D+01 -.119209289551D-06
     .929449866312D+00  .164718750000D+03  .110528494205D+01 -.796354599937D-08
     .705743682771D-09  .100000000000D+01  .164400000000D+04  .000000000000D+00
     .240000000000D+01  .000000000000D+00 -.465661287308D-08  .510000000000D+02
     .259206000000D+06  .400000000000D+01
 4 11  7 13  2  0  0.0  .170568469912D-03  .109139364213D-10  .000000000000D+00
     .570000000000D+02 -.271875000000D+01  .565809282513D-08  .323117426955D+00
     .763684511185D-07  .961202394683D-02  .499375164509D-05  .515366021729D+04
     .266400000000D+06 -.931322574615D-08 -.174522604881D+01  .111758708954D-06
     .937558670545D+00  .268250000000D+03  .735714232377D+00 -.859571518890D-08
    -.260367988229D-09  .100000000000D+01  .164400000000D+04  .000000000000D+00
     .240000000000D+01  .000000000000D+00 -.605359673500D-08  .570000000000D+02
     .259206000000D+06  .400000000000D+01
 5 11  7 13  2  0  0.0 -.188447069377D-03 -.557065504836D-11  .000000000000D+00
     .450000000000D+02  .316562500000D+02  .444232789793D-08 -.867989108282D+00
     .160932540894D-05  .225908076391D-02  .111479312181D-04  .515370968246D+04
     .266400000000D+06  .353902578354D-07 -.700289233675D+00 -.726431608200D-07
     .953754033878D+00  .162937500000D+03  .163902646906D+00 -.781603985515D-08
    -.722887254013D-09  .100000000000D+01  .164400000000D+04  .000000000000D+00
     .240000000000D+01  .000000000000D+00 -.102445483208D-07  .450000000000D+02
     .259206000000D+06  .400000000000D+01
 6 11  7 13  2  0  0.0  .190827995539D-05 -.849240677780D-10  .000000000000D+00
     .400000000000D+02 -.484375000000D+01  .518950187787D-08 -.719107669104D+00
    -.437721610069D-06  .676764885429D-02  .963732600212D-05  .515363456726D+04
     .266400000000D+06 -.987201929092D-07 -.284723100710D+01 -.856816768646D-07
     .936504395224D+00  .182437500000D+03 -.744032842469D+00 -.823641450830D-08
     .690743057935D-09  .100000000000D+01  .164400000000D+04  .000000000000D+00
     .340000000000D+01  .000000000000D+00 -.512227416039D-08  .400000000000D+02
     .259206000000D+06  .400000000000D+01
 7 11  7 13  2  0  0.0  .176890753210D-04  .147792889038D-11  .000000000000D+00
     .460000000000D+02 -.335000000000D+02  .438661129140D-08  .190161712633D+01
    -.172294676304D-05  .468671380077D-02  .838190317154D-07  .515365101051D+04
     .266400000000D+06 -.633299350739D-07  .140544984119D+01  .763684511185D-07
     .974535736091D+00  .384906250000D+03 -.312906091550D+01 -.837142013182D-08
    -.785747015231D-10  .100000000000D+01  .164400000000D+04  .000000000000D+00
     .240000000000D+01  .000000000000D+00 -.107102096081D-07  .460000000000D+02
     .259206000000D+06  .400000000000D+01
 8 11  7 13  2  0  0.0  .848621129990D-05  .113686837722D-12  .000000000000D+00
     .670000000000D+02 -.454375000000D+02  .388909056766D-08  .139118250294D+01
    -.229291617870D-05  .117628618609D-01  .512227416039D-06  .515358121300D+04
     .266400000000D+06 -.931322574615D-07  .148198853452D+01  .189989805222D-06
     .996281679794D+00  .389000000000D+03 -.306909093683D+01 -.810926635492D-08
    -.213223167315D-09  .100000000000D+01  .164400000000D+04  .000000000000D+00
     .340000000000D+01  .000000000000D+00 -.419095158577D-08  .670000000000D+02
     .259206000000D+06  .400000000000D+01
 9 11  7 13  2  0  0.0  .923583284020D-04  .250111042988D-11  .000000000000D+00
     .780000000000D+02 -.140937500000D+02  .426232039990D-08  .117501909283D+01
    -.110827386379D-05  .174469655612D-01  .605359673500D-06  .515366134262D+04
     .266400000000D+06 -.139698386192D-06  .137733162529D+01 -.281259417534D-06
     .983429309561D+00  .380687500000D+03  .158501966924D+01 -.844106588999D-08
     .125005206969D-10  .100000000000D+01  .164400000000D+04  .000000000000D+00
     .340000000000D+01  .000000000000D+00 -.558793544769D-08  .780000000000D+02
     .259206000000D+06  .400000000000D+01
10 11  7 13  2  0  0.0 -.655231997371D-05 -.125055521494D-11  .000000000000D+00
     .950000000000D+02  .389062500000D+02  .463412160119D-08 -.659425968676D+00
     .192970037460D-05  .102184290299D-01  .107660889626D-04  .515362304688D+04
     .266400000000D+06  .782310962677D-07 -.676869599044D+00  .162050127983D-06
     .948709383245D+00  .164875000000D+03  .702860775944D+00 -.803533470394D-08
    -.734316301507D-09  .100000000000D+01  .164400000000D+04  .000000000000D+00
     .340000000000D+01  .000000000000D+00 -.232830643654D-08  .950000000000D+02
     .259206000000D+06  .400000000000D+01
11 11  7 13  2  0  0.0 -.167560763657D-03 -.329691829393D-11  .000000000000D+00
     .120000000000D+02  .593750000000D+01  .677171064036D-08  .204692622928D+01
     .109896063805D-06  .119096669368D-01  .495649874210D-05  .515365722466D+04
     .266400000000D+06 -.189989805222D-06 -.200234512914D+01 -.249594449997D-06
     .887601675624D+00  .245656250000D+03  .942772317474D+00 -.893930092919D-08
     .125005206969D-09  .100000000000D+01  .164400000000D+04  .000000000000D+00
     .240000000000D+01  .000000000000D+00 -.116415321827D-07  .120000000000D+02
     .259206000000D+06  .400000000000D+01
12 11  7 13  2  0  0.0  .874418765306D-05  .250111042988D-11  .000000000000D+00
     .580000000000D+02 -.129093750000D+03  .400838125088D-08  .171053231751D+01
    -.693276524544D-05  .366552965716D-02  .818073749542D-05  .515371651077D+04
     .266400000000D+06  .335276126862D-07  .246094752777D+01  .540167093277D-07
     .975995703464D+00  .230906250000D+03 -.116299367215D+00 -.774496546604D-08
    -.100004165575D-10  .100000000000D+01  .164400000000D+04  .000000000000D+00
     .240000000000D+01  .000000000000D+00 -.121071934700D-07  .580000000000D+02
     .259206000000D+06  .400000000000D+01
13 11  7 13  2  0  0.0  .261391047388D-03 -.170530256582D-11  .000000000000D+00
     .270000000000D+02  .143687500000D+03  .368515350144D-08 -.193326148975D+01
     .748597085476D-05  .474337500054D-02  .535137951374D-05  .515358198166D+04
     .266400000000D+06  .409781932831D-07  .431005537476D+00  .763684511185D-07
     .989527524536D+00  .292781250000D+03  .189240183377D+01 -.782532595624D-08
     .208222959036D-09  .100000000000D+01  .164400000000D+04  .000000000000D+00
     .240000000000D+01  .000000000000D+00 -.111758708954D-07  .270000000000D+02
     .259206000000D+06  .400000000000D+01
14 11  7 13  2  0  0.0  .161271542311D-03  .204636307899D-11  .000000000000D+00
     .630000000000D+02  .125312500000D+03  .374765610492D-08 -.188930258184D+01
     .651553273201D-05  .593776232563D-02  .601634383202D-05  .515368987083D+04
     .266400000000D+06  .122934579849D-06  .406505602213D+00 -.931322574615D-07
     .982546720843D+00  .277593750000D+03 -.211234919998D+01 -.770496379981D-08
     .157863718515D-09  .100000000000D+01  .164400000000D+04  .000000000000D+00
     .240000000000D+01  .000000000000D+00 -.884756445885D-08  .630000000000D+02
     .259206000000D+06  .400000000000D+01
15 11  7 13  2  0  0.0 -.116256996989D-03  .204636307899D-11  .000000000000D+00
     .700000000000D+02  .142406250000D+03  .450233039728D-08 -.227436309969D+01
     .740587711334D-05  .346272811294D-02  .672042369843D-05  .515364759254D+04
     .266400000000D+06 -.279396772385D-07  .329214139513D+00 -.372529029846D-08
     .949690983721D+00  .245437500000D+03 -.564277010231D-01 -.812176687562D-08
     .203579908492D-09  .100000000000D+01  .164400000000D+04  .000000000000D+00
     .240000000000D+01  .000000000000D+00 -.102445483208D-07  .700000000000D+02
     .259206000000D+06  .400000000000D+01
16 11  7 13  2  0  0.0 -.185053329915D-03 -.238742359215D-11  .000000000000D+00
     .660000000000D+02 -.117687500000D+03  .396266506091D-08 -.643923588174D+00
    -.621750950813D-05  .634299800731D-02  .866316258907D-05  .515384496689D+04
     .266400000000D+06  .875443220139D-07  .247882369328D+01 -.104308128357D-06
     .976995460217D+00  .214937500000D+03 -.772118448461D-01 -.778889586735D-08
     .796461747257D-10  .100000000000D+01  .164400000000D+04  .000000000000D+00
     .240000000000D+01  .000000000000D+00 -.977888703346D-08  .660000000000D+02
     .259206000000D+06  .400000000000D+01
17 11  7 13  2  0  0.0  .182431191206D-03 -.682121026330D-12  .000000000000D+00
     .850000000000D+02 -.778125000000D+01  .461554939902D-08 -.163163445226D+01
    -.329688191414D-06  .639503891580D-02  .946223735809D-05  .515377971077D+04
     .266400000000D+06  .115483999252D-06 -.276250144130D+01  .167638063431D-07
     .961696774965D+00  .196281250000D+03 -.239208530834D+01 -.778318134360D-08
     .728958935494D-09  .100000000000D+01  .164400000000D+04  .000000000000D+00
     .240000000000D+01  .000000000000D+00 -.107102096081D-07  .850000000000D+02
     .259206000000D+06  .400000000000D+01
